KNACKSAT-2              
1 67683U 98067XZ  26165.65979306  .00044887  00000+0  55154-3 0  9998
2 67683  51.6308 307.1872 0009407 204.1419 155.9135 15.59771864 19882
INNOSAT 3 (RS92S0)      
1 64894U 25155U   26166.23842508  .00028156  00000+0  62410-3 0  9999
2 64894  97.4484 137.6878 0006184 155.9484 204.2054 15.43704334 80665
