OBJECT_NAME,OBJECT_ID,EPOCH,MEAN_MOTION,ECCENTRICITY,INCLINATION,RA_OF_ASC_NODE,ARG_OF_PERICENTER,MEAN_ANOMALY,EPHEMERIS_TYPE,CLASSIFICATION_TYPE,NORAD_CAT_ID,ELEMENT_SET_NO,REV_AT_EPOCH,BSTAR,MEAN_MOTION_DOT,MEAN_MOTION_DDOT
INNOSAT 3 (RS92S0),2025-155U,2026-06-15T05:43:19.926912,15.43704334,.00061848,97.4484,137.6878,155.9484,204.2054,0,U,64894,999,8066,.62409748E-3,.28156E-3,0
KNACKSAT-2,1998-067XZ,2026-06-14T15:50:06.120384,15.59771864,.00094076,51.6308,307.1872,204.1419,155.9135,0,U,67683,999,1988,.5515425E-3,.44887E-3,0
